{"id":"40332","noradId":"40332","name":"GSAT-16","line1":"1 40332U 14078A   26165.62836355  .00000091  00000+0  00000+0 0  9998","line2":"2 40332   0.0833  90.5327 0007529 357.5068  96.1861  1.00271111 42080","kind":"satellite","owner":"ISRO","country":"India (ISRO)","countryCode":"IND","objectType":"PAYLOAD","intlDesignator":"2014-078A","launchDate":"2014-12-06","rcs":"LARGE","rcsM2":63.2456,"periodMinutes":1436.08,"inclinationDeg":0.08,"apogeeKm":35818,"perigeeKm":35754,"source":"offline","sourceUrl":"https://celestrak.org/NORAD/elements/gp.php?GROUP=geo&FORMAT=tle","tleEpochUtc":"2026-06-14T15:04:50.610Z","orbitClass":"GEO"},{"id":"40333","noradId":"40333","name":"DIRECTV 14","line1":"1 40333U 14078B   26165.59776446 -.00000118  00000+0  00000+0 0  9990","line2":"2 40333   0.0123  18.9709 0000377 251.3664 108.5087  1.00269975 42014","kind":"satellite","owner":"United States","country":"United States","countryCode":"US","objectType":"PAYLOAD","intlDesignator":"2014-078B","launchDate":"2014-12-06","rcs":"LARGE","rcsM2":34.1347,"periodMinutes":1436.12,"inclinationDeg":0.01,"apogeeKm":35789,"perigeeKm":35786,"source":"offline","sourceUrl":"https://celestrak.org/NORAD/elements/gp.php?GROUP=geo&FORMAT=tle","tleEpochUtc":"2026-06-14T14:20:46.849Z","orbitClass":"GEO"},{"id":"40345","noradId":"40345","name":"YAMAL 401","line1":"1 40345U 14082A   26165.42139259 -.00000221  00000+0  00000+0 0  9990","line2":"2 40345   0.0166 275.2640 0000210 306.1490 282.9753  1.00272921 41895","kind":"satellite","owner":"Russia","country":"Russia","countryCode":"CIS","objectType":"PAYLOAD","intlDesignator":"2014-082A","launchDate":"2014-12-15","rcs":"LARGE","rcsM2":59.7633,"periodMinutes":1436.09,"inclinationDeg":0.02,"apogeeKm":35788,"perigeeKm":35785,"source":"offline","sourceUrl":"https://celestrak.org/NORAD/elements/gp.php?GROUP=geo&FORMAT=tle","tleEpochUtc":"2026-06-14T10:06:48.319Z","orbitClass":"GEO"},{"id":"40364","noradId":"40364","name":"ASTRA 2G","line1":"1 40364U 14089A   26165.62298457  .00000157  00000+0  00000+0 0  9993","line2":"2 40364   0.0464 347.4382 0004487  81.4359  86.5204  1.00272362 41943","kind":"satellite","owner":"Commercial GEO","country":"SES","countryCode":"SES","objectType":"PAYLOAD","intlDesignator":"2014-089A","launchDate":"2014-12-27","rcs":"SMALL","rcsM2":0.003,"periodMinutes":1436.1,"inclinationDeg":0.05,"apogeeKm":35806,"perigeeKm":35767,"source":"offline","sourceUrl":"https://celestrak.org/NORAD/elements/gp.php?GROUP=geo&FORMAT=tle","tleEpochUtc":"2026-06-14T14:57:05.866Z","orbitClass":"GEO"},{"id":"40367","noradId":"40367","name":"FENGYUN 2G","line1":"1 40367U 14090A   26165.63713259 -.00000300  00000+0  00000+0 0  9992","line2":"2 40367   5.6310  72.8471 0004016 154.3192   4.8077  1.00273302 41977","kind":"satellite","owner":"China (CNSA)","country":"China (CNSA)","countryCode":"PRC","objectType":"PAYLOAD","intlDesignator":"2014-090A","launchDate":"2014-12-31","rcs":"LARGE","rcsM2":23.1149,"periodMinutes":1436.06,"inclinationDeg":5.63,"apogeeKm":35802,"perigeeKm":35770,"source":"offline","sourceUrl":"https://celestrak.org/NORAD/elements/gp.php?GROUP=geo&FORMAT=tle","tleEpochUtc":"2026-06-14T15:17:28.255Z","orbitClass":"GEO"},{"id":"40374","noradId":"40374","name":"MUOS-3","line1":"1 40374U 15002A   26165.40050583 -.00000124  00000+0  00000+0 0  9997","line2":"2 40374   4.5156  43.5131 0051810 178.1607 169.7771  1.00271675 41555","kind":"satellite","owner":"United States","country":"United States","countryCode":"US","objectType":"PAYLOAD","intlDesignator":"2015-002A","launchDate":"2015-01-21","rcs":"LARGE","rcsM2":20.8608,"periodMinutes":1436.1,"inclinationDeg":4.51,"apogeeKm":36005,"perigeeKm":35568,"source":"offline","sourceUrl":"https://celestrak.org/NORAD/elements/gp.php?GROUP=geo&FORMAT=tle","tleEpochUtc":"2026-06-14T09:36:43.703Z","orbitClass":"GEO"},{"id":"40384","noradId":"40384","name":"INMARSAT 5-F2","line1":"1 40384U 15005A   26165.46391669 -.00000278  00000+0  00000+0 0  9990","line2":"2 40384   0.0173 351.9884 0000553 274.7521 108.0386  1.00275944 40968","kind":"satellite","owner":"IM","country":"IM","countryCode":"IM","objectType":"PAYLOAD","intlDesignator":"2015-005A","launchDate":"2015-02-01","rcs":"LARGE","rcsM2":16.5703,"periodMinutes":1436.09,"inclinationDeg":0.02,"apogeeKm":35789,"perigeeKm":35784,"source":"offline","sourceUrl":"https://celestrak.org/NORAD/elements/gp.php?GROUP=geo&FORMAT=tle","tleEpochUtc":"2026-06-14T11:08:02.402Z","orbitClass":"GEO"},{"id":"40424","noradId":"40424","name":"ABS-3A","line1":"1 40424U 15010A   26165.61683122  .00000000  00000+0  00000+0 0  9998","line2":"2 40424   0.0373  52.4733 0002129 342.4445  87.0276  1.00272172 41358","kind":"satellite","owner":"ABS","country":"ABS","countryCode":"ABS","objectType":"PAYLOAD","intlDesignator":"2015-010A","launchDate":"2015-03-02","rcs":"LARGE","rcsM2":6.019,"periodMinutes":1436.13,"inclinationDeg":0.04,"apogeeKm":35795,"perigeeKm":35780,"source":"offline","sourceUrl":"https://celestrak.org/NORAD/elements/gp.php?GROUP=geo&FORMAT=tle","tleEpochUtc":"2026-06-14T14:48:14.217Z","orbitClass":"GEO"},{"id":"40425","noradId":"40425","name":"EUTELSAT 115 WEST B","line1":"1 40425U 15010B   26165.45204329 -.00000017  00000+0  00000+0 0  9998","line2":"2 40425   0.0115 151.7342 0000244 295.8097 223.0409  1.00267810 41366","kind":"satellite","owner":"Commercial GEO","country":"EUTE","countryCode":"EUTE","objectType":"PAYLOAD","intlDesignator":"2015-010B","launchDate":"2015-03-02","rcs":"LARGE","rcsM2":5.4794,"periodMinutes":1436.12,"inclinationDeg":0.01,"apogeeKm":35788,"perigeeKm":35786,"source":"offline","sourceUrl":"https://celestrak.org/NORAD/elements/gp.php?GROUP=geo&FORMAT=tle","tleEpochUtc":"2026-06-14T10:50:56.540Z","orbitClass":"GEO"},{"id":"40505","noradId":"40505","name":"EXPRESS-AM7","line1":"1 40505U 15012A   26165.62532458  .00000157  00000+0  00000+0 0  9999","line2":"2 40505   0.0175 356.2062 0002789  94.3631  77.4595  1.00269136 40981","kind":"satellite","owner":"Russia","country":"Russia","countryCode":"CIS","objectType":"PAYLOAD","intlDesignator":"2015-012A","launchDate":"2015-03-18","rcs":"LARGE","rcsM2":12.9055,"periodMinutes":1436.14,"apogeeKm":35799,"perigeeKm":35776,"source":"offline","sourceUrl":"https://celestrak.org/NORAD/elements/gp.php?GROUP=geo&FORMAT=tle","tleEpochUtc":"2026-06-14T15:00:28.043Z","orbitClass":"GEO"},{"id":"40549","noradId":"40549","name":"BEIDOU-3S IGSO-1S","line1":"1 40549U 15019A   26164.85509376 -.00000180  00000+0  00000+0 0  9998","line2":"2 40549  49.2022 295.5028 0038983 190.8193 175.4051  1.00251097 41043","kind":"satellite","owner":"China","country":"China (CNSA)","countryCode":"PRC","objectType":"PAYLOAD","intlDesignator":"2015-019A","launchDate":"2015-03-30","rcs":"LARGE","rcsM2":11.7883,"periodMinutes":1436.39,"inclinationDeg":49.2,"apogeeKm":35956,"perigeeKm":35628,"source":"offline","sourceUrl":"https://celestrak.org/NORAD/elements/gp.php?GROUP=geo&FORMAT=tle","tleEpochUtc":"2026-06-13T20:31:20.100Z","orbitClass":"GEO"},{"id":"40613","noradId":"40613","name":"THOR 7","line1":"1 40613U 15022A   26165.61726455 -.00000002  00000+0  00000+0 0  9991","line2":"2 40613   0.0425 113.9684 0002356 330.4977  40.0096  1.00271707 40792","kind":"satellite","owner":"NOR","country":"NOR","countryCode":"NOR","objectType":"PAYLOAD","intlDesignator":"2015-022A","launchDate":"2015-04-26","rcs":"LARGE","rcsM2":70.0714,"periodMinutes":1436.1,"inclinationDeg":0.04,"apogeeKm":35797,"perigeeKm":35777,"source":"offline","sourceUrl":"https://celestrak.org/NORAD/elements/gp.php?GROUP=geo&FORMAT=tle","tleEpochUtc":"2026-06-14T14:48:51.657Z","orbitClass":"GEO"},{"id":"40617","noradId":"40617","name":"TURKMENALEM52E/MONACOSAT","line1":"1 40617U 15023A   26165.55643876  .00000111  00000+0  00000+0 0  9994","line2":"2 40617   0.0300  68.7491 0002635   8.6844  77.7521  1.00269775 40824","kind":"satellite","owner":"TMMC","country":"TMMC","countryCode":"TMMC","objectType":"PAYLOAD","intlDesignator":"2015-023A","launchDate":"2015-04-27","rcs":"LARGE","rcsM2":8.9433,"periodMinutes":1436.13,"inclinationDeg":0.03,"apogeeKm":35798,"perigeeKm":35776,"source":"offline","sourceUrl":"https://celestrak.org/NORAD/elements/gp.php?GROUP=geo&FORMAT=tle","tleEpochUtc":"2026-06-14T13:21:16.308Z","orbitClass":"GEO"},{"id":"40663","noradId":"40663","name":"DIRECTV 15","line1":"1 40663U 15026A   26165.59707112 -.00000096  00000+0  00000+0 0  9999","line2":"2 40663   0.0167  16.3970 0000275 272.7007  85.8724  1.00269964 40432","kind":"satellite","owner":"United States","country":"United States","countryCode":"US","objectType":"PAYLOAD","intlDesignator":"2015-026A","launchDate":"2015-05-27","rcs":"LARGE","rcsM2":42.7129,"periodMinutes":1436.08,"inclinationDeg":0.02,"apogeeKm":35787,"perigeeKm":35786,"source":"offline","sourceUrl":"https://celestrak.org/NORAD/elements/gp.php?GROUP=geo&FORMAT=tle","tleEpochUtc":"2026-06-14T14:19:46.944Z","orbitClass":"GEO"},{"id":"40664","noradId":"40664","name":"SKY MEXICO-1","line1":"1 40664U 15026B   26165.53052531 -.00000227  00000+0  00000+0 0  9998","line2":"2 40664   0.0172 352.9897 0001955 112.4922 269.5400  1.00270798 40426","kind":"satellite","owner":"MEX","country":"MEX","countryCode":"MEX","objectType":"PAYLOAD","intlDesignator":"2015-026B","launchDate":"2015-05-27","rcs":"LARGE","rcsM2":75.685,"periodMinutes":1436.11,"inclinationDeg":0.01,"apogeeKm":35795,"perigeeKm":35779,"source":"offline","sourceUrl":"https://celestrak.org/NORAD/elements/gp.php?GROUP=geo&FORMAT=tle","tleEpochUtc":"2026-06-14T12:43:57.386Z","orbitClass":"GEO"},{"id":"40732","noradId":"40732","name":"METEOSAT-11 (MSG-4)","line1":"1 40732U 15034A   26165.61934456  .00000069  00000+0  00000+0 0  9990","line2":"2 40732   3.1952  71.1255 0001756   9.6386  54.7067  1.00279558  7193","kind":"satellite","owner":"EUME","country":"EUME","countryCode":"EUME","objectType":"PAYLOAD","intlDesignator":"2015-034A","launchDate":"2015-07-15","rcs":"LARGE","rcsM2":4.001,"periodMinutes":1435.99,"inclinationDeg":3.19,"apogeeKm":35792,"perigeeKm":35777,"source":"offline","sourceUrl":"https://celestrak.org/NORAD/elements/gp.php?GROUP=geo&FORMAT=tle","tleEpochUtc":"2026-06-14T14:51:51.369Z","orbitClass":"GEO"},{"id":"40733","noradId":"40733","name":"STAR ONE C4","line1":"1 40733U 15034B   26165.60348449 -.00000258  00000+0  00000+0 0  9992","line2":"2 40733   0.0341  36.7487 0001985  36.7788 336.6357  1.00270342 39985","kind":"satellite","owner":"BRAZ","country":"BRAZ","countryCode":"BRAZ","objectType":"PAYLOAD","intlDesignator":"2015-034B","launchDate":"2015-07-15","rcs":"LARGE","rcsM2":23.3101,"periodMinutes":1436.11,"inclinationDeg":0.03,"apogeeKm":35795,"perigeeKm":35778,"source":"offline","sourceUrl":"https://celestrak.org/NORAD/elements/gp.php?GROUP=geo&FORMAT=tle","tleEpochUtc":"2026-06-14T14:29:01.059Z","orbitClass":"GEO"},{"id":"40746","noradId":"40746","name":"WGS F7 (USA 263)","line1":"1 40746U 15036A   26165.50943716  .00000024  00000+0  00000+0 0  9995","line2":"2 40746   0.0024 354.8485 0000247 269.3465 357.0026  1.00268883 39847","kind":"satellite","owner":"United States","country":"United States","countryCode":"US","objectType":"PAYLOAD","intlDesignator":"2015-036A","launchDate":"2015-07-24","rcs":"LARGE","rcsM2":7.2473,"periodMinutes":1436.1,"apogeeKm":35788,"perigeeKm":35785,"source":"offline","sourceUrl":"https://celestrak.org/NORAD/elements/gp.php?GROUP=geo&FORMAT=tle","tleEpochUtc":"2026-06-14T12:13:35.370Z","orbitClass":"GEO"},{"id":"40874","noradId":"40874","name":"INTELSAT 34 (IS-34)","line1":"1 40874U 15039A   26165.46383002 -.00000278  00000+0  00000+0 0  9993","line2":"2 40874   0.0105 335.3821 0000490 359.9880  38.8912  1.00273179 39600","kind":"satellite","owner":"Commercial GEO","country":"ITSO","countryCode":"ITSO","objectType":"PAYLOAD","intlDesignator":"2015-039A","launchDate":"2015-08-20","rcs":"LARGE","rcsM2":16.5703,"periodMinutes":1436.09,"inclinationDeg":0.01,"apogeeKm":35788,"perigeeKm":35785,"source":"offline","sourceUrl":"https://celestrak.org/NORAD/elements/gp.php?GROUP=geo&FORMAT=tle","tleEpochUtc":"2026-06-14T11:07:54.913Z","orbitClass":"GEO"},{"id":"40875","noradId":"40875","name":"EUTELSAT 8 WEST B","line1":"1 40875U 15039B   26165.61570455 -.00000059  00000+0  00000+0 0  9998","line2":"2 40875   0.0652   9.2919 0003910  70.7594  36.5179  1.00271765 39635","kind":"satellite","owner":"Commercial GEO","country":"EUTE","countryCode":"EUTE","objectType":"PAYLOAD","intlDesignator":"2015-039B","launchDate":"2015-08-20","rcs":"LARGE","rcsM2":7.4159,"periodMinutes":1436.1,"inclinationDeg":0.06,"apogeeKm":35803,"perigeeKm":35770,"source":"offline","sourceUrl":"https://celestrak.org/NORAD/elements/gp.php?GROUP=geo&FORMAT=tle","tleEpochUtc":"2026-06-14T14:46:36.873Z","orbitClass":"GEO"},{"id":"40880","noradId":"40880","name":"GSAT-6","line1":"1 40880U 15041A   26165.63375258 -.00000155  00000+0  00000+0 0  9990","line2":"2 40880   1.9130  82.6269 0003328 355.1941 135.7895  1.00272494 39574","kind":"satellite","owner":"ISRO","country":"India (ISRO)","countryCode":"IND","objectType":"PAYLOAD","intlDesignator":"2015-041A","launchDate":"2015-08-27","rcs":"LARGE","rcsM2":2,"periodMinutes":1436.08,"inclinationDeg":1.91,"apogeeKm":35800,"perigeeKm":35772,"source":"offline","sourceUrl":"https://celestrak.org/NORAD/elements/gp.php?GROUP=geo&FORMAT=tle","tleEpochUtc":"2026-06-14T15:12:36.222Z","orbitClass":"GEO"},{"id":"40882","noradId":"40882","name":"INMARSAT 5-F3","line1":"1 40882U 15042A   26165.43909397  .00000057  00000+0  00000+0 0  9998","line2":"2 40882   0.0185  10.4316 0000482 177.4950  52.5169  1.00263860 39545","kind":"satellite","owner":"IM","country":"IM","countryCode":"IM","objectType":"PAYLOAD","intlDesignator":"2015-042A","launchDate":"2015-08-28","rcs":"LARGE","rcsM2":49.8107,"periodMinutes":1436.18,"inclinationDeg":0.02,"apogeeKm":35790,"perigeeKm":35787,"source":"offline","sourceUrl":"https://celestrak.org/NORAD/elements/gp.php?GROUP=geo&FORMAT=tle","tleEpochUtc":"2026-06-14T10:32:17.719Z","orbitClass":"GEO"},{"id":"40887","noradId":"40887","name":"MUOS-4","line1":"1 40887U 15044A   26165.60847556 -.00000089  00000+0  00000+0 0  9998","line2":"2 40887   4.3250  42.2282 0057784   2.0973 152.6161  1.00270532 39537","kind":"satellite","owner":"United States","country":"United States","countryCode":"US","objectType":"PAYLOAD","intlDesignator":"2015-044A","launchDate":"2015-09-02","rcs":"LARGE","rcsM2":99.6156,"periodMinutes":1436.12,"inclinationDeg":4.32,"apogeeKm":36031,"perigeeKm":35543,"source":"offline","sourceUrl":"https://celestrak.org/NORAD/elements/gp.php?GROUP=geo&FORMAT=tle","tleEpochUtc":"2026-06-14T14:36:12.288Z","orbitClass":"GEO"},{"id":"40892","noradId":"40892","name":"TJS-1","line1":"1 40892U 15046A   26165.54211385 -.00000149  00000+0  00000+0 0  9991","line2":"2 40892   0.3167  84.9411 0005470 358.2021 169.9207  1.00271064 39542","kind":"satellite","owner":"China (CNSA)","country":"China (CNSA)","countryCode":"PRC","objectType":"PAYLOAD","intlDesignator":"2015-046A","launchDate":"2015-09-12","rcs":"LARGE","rcsM2":65.167,"periodMinutes":1436.11,"inclinationDeg":0.31,"apogeeKm":35810,"perigeeKm":35764,"source":"offline","sourceUrl":"https://celestrak.org/NORAD/elements/gp.php?GROUP=geo&FORMAT=tle","tleEpochUtc":"2026-06-14T13:00:38.636Z","orbitClass":"GEO"},{"id":"40895","noradId":"40895","name":"EXPRESS-AM8","line1":"1 40895U 15048A   26165.61466454 -.00000105  00000+0  00000+0 0  9995","line2":"2 40895   0.0161 314.7016 0000482 343.4516 172.0410  1.00272358 39328","kind":"satellite","owner":"Russia","country":"Russia","countryCode":"CIS","objectType":"PAYLOAD","intlDesignator":"2015-048A","launchDate":"2015-09-14","rcs":"LARGE","rcsM2":44.8226,"periodMinutes":1436.1,"inclinationDeg":0.02,"apogeeKm":35787,"perigeeKm":35786,"source":"offline","sourceUrl":"https://celestrak.org/NORAD/elements/gp.php?GROUP=geo&FORMAT=tle","tleEpochUtc":"2026-06-14T14:45:07.016Z","orbitClass":"GEO"},{"id":"40938","noradId":"40938","name":"BEIDOU-3S IGSO-2S","line1":"1 40938U 15053A   26163.74469534 -.00000142  00000+0  00000+0 0  9994","line2":"2 40938  49.2285 258.8368 0065652 191.9654 173.7671  1.00260455 39316","kind":"satellite","owner":"China","country":"China (CNSA)","countryCode":"PRC","objectType":"PAYLOAD","intlDesignator":"2015-053A","launchDate":"2015-09-29","rcs":"LARGE","rcsM2":61.2179,"periodMinutes":1436.26,"inclinationDeg":49.23,"apogeeKm":36067,"perigeeKm":35513,"source":"offline","sourceUrl":"https://celestrak.org/NORAD/elements/gp.php?GROUP=geo&FORMAT=tle","tleEpochUtc":"2026-06-12T17:52:21.677Z","orbitClass":"GEO"},{"id":"40940","noradId":"40940","name":"SKY MUSTER 1 (NBN1A)","line1":"1 40940U 15054A   26165.66175101  .00000000  00000+0  00000+0 0  9997","line2":"2 40940   0.0249 338.3526 0001607 109.0449 194.0298  1.00270795 39236","kind":"satellite","owner":"AUS","country":"AUS","countryCode":"AUS","objectType":"PAYLOAD","intlDesignator":"2015-054A","launchDate":"2015-09-30","rcs":"LARGE","rcsM2":51.5754,"periodMinutes":1436.13,"inclinationDeg":0.02,"apogeeKm":35794,"perigeeKm":35781,"source":"offline","sourceUrl":"https://celestrak.org/NORAD/elements/gp.php?GROUP=geo&FORMAT=tle","tleEpochUtc":"2026-06-14T15:52:55.287Z","orbitClass":"GEO"},{"id":"40941","noradId":"40941","name":"ARSAT 2","line1":"1 40941U 15054B   26165.53009198 -.00000218  00000+0  00000+0 0  9998","line2":"2 40941   0.0292  50.0457 0001945  17.4864 305.1302  1.00271283 39272","kind":"satellite","owner":"ARGN","country":"ARGN","countryCode":"ARGN","objectType":"PAYLOAD","intlDesignator":"2015-054B","launchDate":"2015-09-30","rcs":"LARGE","rcsM2":81.4064,"periodMinutes":1436.1,"inclinationDeg":0.03,"apogeeKm":35795,"perigeeKm":35778,"source":"offline","sourceUrl":"https://celestrak.org/NORAD/elements/gp.php?GROUP=geo&FORMAT=tle","tleEpochUtc":"2026-06-14T12:43:19.947Z","orbitClass":"GEO"},{"id":"40946","noradId":"40946","name":"MORELOS 3","line1":"1 40946U 15056A   26165.59499111 -.00000039  00000+0  00000+0 0  9990","line2":"2 40946   3.1847  15.0060 0001208   3.3159 345.6688  1.00272722 39254","kind":"satellite","owner":"MEX","country":"MEX","countryCode":"MEX","objectType":"PAYLOAD","intlDesignator":"2015-056A","launchDate":"2015-10-02","rcs":"LARGE","rcsM2":25.0379,"periodMinutes":1436.09,"inclinationDeg":3.18,"apogeeKm":35792,"perigeeKm":35781,"source":"offline","sourceUrl":"https://celestrak.org/NORAD/elements/gp.php?GROUP=geo&FORMAT=tle","tleEpochUtc":"2026-06-14T14:16:47.231Z","orbitClass":"GEO"},{"id":"40982","noradId":"40982","name":"APSTAR-9","line1":"1 40982U 15059A   26165.64555931 -.00000259  00000+0  00000+0 0  9996","line2":"2 40982   0.0279  37.9993 0002223 151.2810  88.0720  1.00272373 39091","kind":"satellite","owner":"China (CNSA)","country":"China (CNSA)","countryCode":"PRC","objectType":"PAYLOAD","intlDesignator":"2015-059A","launchDate":"2015-10-16","rcs":"LARGE","rcsM2":88.2146,"periodMinutes":1436.08,"inclinationDeg":0.03,"apogeeKm":35796,"perigeeKm":35777,"source":"offline","sourceUrl":"https://celestrak.org/NORAD/elements/gp.php?GROUP=geo&FORMAT=tle","tleEpochUtc":"2026-06-14T15:29:36.324Z","orbitClass":"GEO"},{"id":"40984","noradId":"40984","name":"TURKSAT 4B","line1":"1 40984U 15060A   26165.55600543  .00000122  00000+0  00000+0 0  9998","line2":"2 40984   0.0320  71.7976 0002154 355.3826  85.8102  1.00270580 39079","kind":"satellite","owner":"TURK","country":"TURK","countryCode":"TURK","objectType":"PAYLOAD","intlDesignator":"2015-060A","launchDate":"2015-10-16","periodMinutes":1436.12,"inclinationDeg":0.03,"apogeeKm":35796,"perigeeKm":35778,"source":"offline","sourceUrl":"https://celestrak.org/NORAD/elements/gp.php?GROUP=geo&FORMAT=tle","tleEpochUtc":"2026-06-14T13:20:38.869Z","orbitClass":"GEO"},{"id":"41021","noradId":"41021","name":"ZHONGXING-2C","line1":"1 41021U 15063A   26165.64691667 -.00000317  00000+0  00000+0 0  9998","line2":"2 41021   0.2658  90.0829 0007546  98.6180  50.5885  1.00272073 38951","kind":"satellite","owner":"China (CNSA)","country":"China (CNSA)","countryCode":"PRC","objectType":"PAYLOAD","intlDesignator":"2015-063A","launchDate":"2015-11-03","rcs":"LARGE","rcsM2":75.4609,"periodMinutes":1436.08,"inclinationDeg":0.26,"apogeeKm":35818,"perigeeKm":35755,"source":"offline","sourceUrl":"https://celestrak.org/NORAD/elements/gp.php?GROUP=geo&FORMAT=tle","tleEpochUtc":"2026-06-14T15:31:33.600Z","orbitClass":"GEO"}