OBJECT_NAME,OBJECT_ID,EPOCH,MEAN_MOTION,ECCENTRICITY,INCLINATION,RA_OF_ASC_NODE,ARG_OF_PERICENTER,MEAN_ANOMALY,EPHEMERIS_TYPE,CLASSIFICATION_TYPE,NORAD_CAT_ID,ELEMENT_SET_NO,REV_AT_EPOCH,BSTAR,MEAN_MOTION_DOT,MEAN_MOTION_DDOT
GSAT-16,2014-078A,2026-06-14T15:04:50.610720,1.00271111,.00075294,0.0833,90.5327,357.5068,96.1861,0,U,40332,999,4208,0,.91E-6,0
DIRECTV 14,2014-078B,2026-06-14T14:20:46.849344,1.00269975,.00003779,0.0123,18.9709,251.3664,108.5087,0,U,40333,999,4201,0,-.118E-5,0
YAMAL 401,2014-082A,2026-06-14T10:06:48.319776,1.00272921,.00002103,0.0166,275.2640,306.1490,282.9753,0,U,40345,999,4189,0,-.221E-5,0
ASTRA 2G,2014-089A,2026-06-14T14:57:05.866848,1.00272362,.00044871,0.0464,347.4382,81.4359,86.5204,0,U,40364,999,4194,0,.157E-5,0
FENGYUN 2G,2014-090A,2026-06-14T15:17:28.255776,1.00273302,.00040163,5.6310,72.8471,154.3192,4.8077,0,U,40367,999,4197,0,-.3E-5,0
MUOS-3,2015-002A,2026-06-14T09:36:43.703712,1.00271675,.005181,4.5156,43.5131,178.1607,169.7771,0,U,40374,999,4155,0,-.124E-5,0
INMARSAT 5-F2,2015-005A,2026-06-14T11:08:02.402016,1.00275944,.00005531,0.0173,351.9884,274.7521,108.0386,0,U,40384,999,4096,0,-.278E-5,0
ABS-3A,2015-010A,2026-06-14T14:48:14.217408,1.00272172,.0002129,0.0373,52.4733,342.4445,87.0276,0,U,40424,999,4135,0,0,0
EUTELSAT 115 WEST B,2015-010B,2026-06-14T10:50:56.540256,1.00267810,.00002442,0.0115,151.7342,295.8097,223.0409,0,U,40425,999,4136,0,-.17E-6,0
EXPRESS-AM7,2015-012A,2026-06-14T15:00:28.043712,1.00269136,.00027892,0.0175,356.2062,94.3631,77.4595,0,U,40505,999,4098,0,.157E-5,0
BEIDOU-3S IGSO-1S,2015-019A,2026-06-13T20:31:20.100864,1.00251097,.0038983,49.2022,295.5028,190.8193,175.4051,0,U,40549,999,4104,0,-.18E-5,0
THOR 7,2015-022A,2026-06-14T14:48:51.657120,1.00271707,.00023569,0.0425,113.9684,330.4977,40.0096,0,U,40613,999,4079,0,-.2E-7,0
TURKMENALEM52E/MONACOSAT,2015-023A,2026-06-14T13:21:16.308864,1.00269775,.00026351,0.0300,68.7491,8.6844,77.7521,0,U,40617,999,4082,0,.111E-5,0
DIRECTV 15,2015-026A,2026-06-14T14:19:46.944768,1.00269964,.00002756,0.0167,16.3970,272.7007,85.8724,0,U,40663,999,4043,0,-.96E-6,0
SKY MEXICO-1,2015-026B,2026-06-14T12:43:57.386784,1.00270798,.00019558,0.0172,352.9897,112.4922,269.5400,0,U,40664,999,4042,0,-.227E-5,0
METEOSAT-11 (MSG-4),2015-034A,2026-06-14T14:51:51.369984,1.00279558,.00017566,3.1952,71.1255,9.6386,54.7067,0,U,40732,999,719,0,.69E-6,0
STAR ONE C4,2015-034B,2026-06-14T14:29:01.059936,1.00270342,.00019852,0.0341,36.7487,36.7788,336.6357,0,U,40733,999,3998,0,-.258E-5,0
WGS F7 (USA 263),2015-036A,2026-06-14T12:13:35.370624,1.00268883,.00002472,0.0024,354.8485,269.3465,357.0026,0,U,40746,999,3984,0,.24E-6,0
INTELSAT 34 (IS-34),2015-039A,2026-06-14T11:07:54.913728,1.00273179,.00004907,0.0105,335.3821,359.9880,38.8912,0,U,40874,999,3960,0,-.278E-5,0
EUTELSAT 8 WEST B,2015-039B,2026-06-14T14:46:36.873120,1.00271765,.00039108,0.0652,9.2919,70.7594,36.5179,0,U,40875,999,3963,0,-.59E-6,0
GSAT-6,2015-041A,2026-06-14T15:12:36.222912,1.00272494,.00033282,1.9130,82.6269,355.1941,135.7895,0,U,40880,999,3957,0,-.155E-5,0
INMARSAT 5-F3,2015-042A,2026-06-14T10:32:17.719008,1.00263860,.00004828,0.0185,10.4316,177.4950,52.5169,0,U,40882,999,3954,0,.57E-6,0
MUOS-4,2015-044A,2026-06-14T14:36:12.288384,1.00270532,.00577842,4.3250,42.2282,2.0973,152.6161,0,U,40887,999,3953,0,-.89E-6,0
TJS-1,2015-046A,2026-06-14T13:00:38.636640,1.00271064,.000547,0.3167,84.9411,358.2021,169.9207,0,U,40892,999,3954,0,-.149E-5,0
EXPRESS-AM8,2015-048A,2026-06-14T14:45:07.016256,1.00272358,.00004821,0.0161,314.7016,343.4516,172.0410,0,U,40895,999,3932,0,-.105E-5,0
BEIDOU-3S IGSO-2S,2015-053A,2026-06-12T17:52:21.677376,1.00260455,.0065652,49.2285,258.8368,191.9654,173.7671,0,U,40938,999,3931,0,-.142E-5,0
SKY MUSTER 1 (NBN1A),2015-054A,2026-06-14T15:52:55.287264,1.00270795,.00016076,0.0249,338.3526,109.0449,194.0298,0,U,40940,999,3923,0,0,0
ARSAT 2,2015-054B,2026-06-14T12:43:19.947072,1.00271283,.00019455,0.0292,50.0457,17.4864,305.1302,0,U,40941,999,3927,0,-.218E-5,0
MORELOS 3,2015-056A,2026-06-14T14:16:47.231904,1.00272722,.00012087,3.1847,15.0060,3.3159,345.6688,0,U,40946,999,3925,0,-.39E-6,0
APSTAR-9,2015-059A,2026-06-14T15:29:36.324384,1.00272373,.00022235,0.0279,37.9993,151.2810,88.0720,0,U,40982,999,3909,0,-.259E-5,0
TURKSAT 4B,2015-060A,2026-06-14T13:20:38.869152,1.00270580,.00021541,0.0320,71.7976,355.3826,85.8102,0,U,40984,999,3907,0,.122E-5,0
ZHONGXING-2C,2015-063A,2026-06-14T15:31:33.600288,1.00272073,.00075461,0.2658,90.0829,98.6180,50.5885,0,U,41021,999,3895,0,-.317E-5,0
